{
  "norad_id": 57132,
  "name": "STARLINK-6128",
  "history": [
    {
      "epoch": "2026-03-28T14:26:23.083584",
      "apogee_km": 559.9125579969223,
      "perigee_km": 558.2614986781773,
      "latitude_deg": -40.4455356003931,
      "longitude_deg": -49.04101823992096,
      "semi_major_axis_km": 6937.2240283375495,
      "eccentricity": 0.000119,
      "inclination_deg": 43.0023,
      "raan_deg": 171.4166,
      "arg_perigee_deg": 268.6484,
      "mean_anomaly_deg": 91.4222,
      "mean_motion_rev_day": 15.02533565
    }
  ]
}